OBJECT C                
1 57582U 23117C   24359.15544189  .00014548  00000+0  64838-3 0  9994
2 57582  97.4669  69.1034 0009431 359.8277   0.2953 15.21489575 76011
